ONEWEB-0387             
1 49313U 21090AL  23187.10655990  .00000096  00000+0  20355-3 0  9990
2 49313  87.9270 128.9206 0002523  91.0516 269.0906 13.20775104 88959
ONEWEB-0388             
1 49314U 21090AM  23188.18742622  .00000045  00000+0  80574-4 0  9993
2 49314  87.9267 159.0429 0002128  82.7769 277.3606 13.19723541 85789
ONEWEB-0389             
1 50469U 21132A   23186.81578702 -.00000106  00000+0 -30664-3 0  9991
2 50469  87.9163 219.8836 0002684  99.3806 260.7629 13.17647915 77495
ONEWEB-0390             
1 50470U 21132B   23186.81801226  .00000039  00000+0  68090-4 0  9991
2 50470  87.9165 219.8886 0002292 103.4285 256.7103 13.17647641 77495
ONEWEB-0391             
1 50471U 21132C   23186.82025302 -.00000001  00000+0 -34748-4 0  9990
2 50471  87.9163 219.8591 0002402  96.5985 263.5420 13.17650991 77499
ONEWEB-0392             
1 50472U 21132D   23187.38085204  .00000115  00000+0  26341-3 0  9993
2 50472  87.9168 219.7856 0002342  99.6628 260.4768 13.17649549 77600
ONEWEB-0393             
1 50473U 21132E   23188.07431252  .00000026  00000+0  34024-4 0  9998
2 50473  87.9159 219.6180 0002165 101.5031 258.6344 13.17648308 77683
ONEWEB-0394             
1 50474U 21132F   23187.94142921  .00000074  00000+0  15532-3 0  9991
2 50474  87.9235 189.3836 0002259  87.3148 272.8243 13.18684475 81029
ONEWEB-0395             
1 50475U 21132G   23186.85569157 -.00000662  00000+0 -19046-2 0  9993
2 50475  87.8899 235.0911 0002217 103.0468 257.0907 13.11416890 75788
ONEWEB-0396             
1 50476U 21132H   23187.25219698  .00000027  00000+0  34848-4 0  9993
2 50476  87.9234 189.5124 0002357  86.0074 274.1328 13.18688509 80979
ONEWEB-0397             
1 50477U 21132J   23186.73583455  .00000031  00000+0  46620-4 0  9997
2 50477  87.9234 189.6155 0002431  86.0586 274.0824 13.18684703 80888
ONEWEB-0398             
1 50478U 21132K   23187.12910292  .00000583  00000+0  16079-2 0  9990
2 50478  87.8900 235.0306 0002216 111.3648 248.7717 13.11416323 75724
ONEWEB-0399             
1 50479U 21132L   23187.11639210  .00000528  00000+0  14551-2 0  9990
2 50479  87.8900 235.0447 0002100  86.6726 273.4642 13.11417729 75716
ONEWEB-0400             
1 50480U 21132M   23187.77700073 -.00000017  00000+0 -75057-4 0  9995
2 50480  87.9241 189.4582 0002004  95.9467 264.1893 13.18688589 81024
ONEWEB-0401             
1 50481U 21132N   23187.97092701  .00000076  00000+0  16011-3 0  9997
2 50481  87.9233 189.3791 0002162  76.3063 283.8310 13.18687850 81052
ONEWEB-0402             
1 50482U 21132P   23187.70959432  .00000117  00000+0  26410-3 0  9992
2 50482  87.9241 189.4725 0001808  69.6954 290.4372 13.18686479 81047
ONEWEB-0403             
1 50483U 21132Q   23187.96040298  .00000108  00000+0  24157-3 0  9998
2 50483  87.9214 189.4022 0002347  83.3855 276.7544 13.18686177 81032
ONEWEB-0404             
1 50484U 21132R   23188.08916977  .00003919  00000+0  11020-1 0  9995
2 50484  87.8893 234.8086 0003399  87.9670 272.1847 13.11397487 75926
ONEWEB-0405             
1 50485U 21132S   23186.71371136  .00000005  00000+0 -20184-4 0  9994
2 50485  87.9237 189.6271 0002236  74.1066 286.0312 13.18685754 81279
ONEWEB-0406             
1 50486U 21132T   23187.96462188  .00000074  00000+0  15392-3 0  9990
2 50486  87.9233 189.3811 0002647  88.7322 271.4113 13.18685945 81072
ONEWEB-0407             
1 50487U 21132U   23187.95829195  .00000105  00000+0  23354-3 0  9997
2 50487  87.9235 189.3894 0002220  83.3790 276.7595 13.18685010 81012
ONEWEB-0409             
1 50488U 21132V   23188.08703984 -.00000467  00000+0 -13536-2 0  9993
2 50488  87.8906 234.8214 0002733 102.3526 257.7908 13.11417946 75820
ONEWEB-0412             
1 50489U 21132W   23186.73372253  .00000033  00000+0  52085-4 0  9996
2 50489  87.9238 189.6598 0002284  71.1175 289.0204 13.18688010 80930
ONEWEB-0413             
1 50490U 21132X   23187.42084066 -.00000010  00000+0 -58741-4 0  9999
2 50490  87.9240 189.4929 0002076  75.5843 284.5519 13.18684650 80979
ONEWEB-0414             
1 50491U 21132Y   23186.72422376 -.00000004  00000+0 -43002-4 0  9999
2 50491  87.9150 189.6565 0002394  81.2716 278.8687 13.18682606 80919
ONEWEB-0417             
1 50492U 21132Z   23186.73160245 -.00000045  00000+0 -14562-3 0  9998
2 50492  87.9240 189.6727 0002361  94.2949 265.8453 13.18683169 80895
ONEWEB-0418             
1 50493U 21132AA  23187.95933234  .00000067  00000+0  13685-3 0  9997
2 50493  87.9238 189.3758 0002706  93.8024 266.3417 13.18687269 81102
ONEWEB-0419             
1 50494U 21132AB  23187.44191674  .00000036  00000+0  57602-4 0  9990
2 50494  87.9245 189.5020 0002199 100.2555 259.8825 13.18685698 80960
ONEWEB-0420             
1 50495U 21132AC  23186.72528172  .00000003  00000+0 -25448-4 0  9996
2 50495  87.9241 189.6533 0001653  91.8892 268.2429 13.18688564 80879
ONEWEB-0421             
1 50496U 21132AD  23187.02247884  .00000023  00000+0  25126-4 0  9993
2 50496  87.9242 189.6012 0002323  76.1396 283.9995 13.18683910 80954
ONEWEB-0424             
1 50497U 21132AE  23187.43767216  .00000038  00000+0  64109-4 0  9995
2 50497  87.9240 189.5243 0001994 103.2797 256.8558 13.18686313 81010
ONEWEB-0426             
1 50498U 21132AF  23188.08265122 -.00000015  00000+0 -70438-4 0  9996
2 50498  87.9238 189.3782 0002554  81.2456 278.8965 13.18686811 81057
ONEWEB-0427             
1 50499U 21132AG  23187.96673172  .00000527  00000+0  13028-2 0  9997
2 50499  87.9241 189.4213 0002404  93.2652 266.8756 13.18687819 81073
ONEWEB-0429             
1 50500U 21132AH  23186.74004323  .00000011  00000+0 -47454-5 0  9993
2 50500  87.9221 189.6377 0001983  92.2355 267.9005 13.18685937 80872
ONEWEB-0430             
1 50501U 21132AJ  23188.01939371  .00000048  00000+0  90043-4 0  9996
2 50501  87.9197 189.3891 0001905  97.2212 262.9136 13.18689497 81083
ONEWEB-0432             
1 50502U 21132AK  23187.97515756  .00000085  00000+0  18402-3 0  9997
2 50502  87.9239 189.4184 0002005  89.4496 270.6866 13.18686062 81043
ONEWEB-0440             
1 50503U 21132AL  23186.74848660 -.00000009  00000+0 -55839-4 0  9999
2 50503  87.9242 189.6720 0002186  67.8649 292.2715 13.18685462 80861
ONEWEB-0450             
1 50504U 21132AM  23187.95618935  .00000160  00000+0  37373-3 0  9992
2 50504  87.9211 189.4360 0001630  84.1626 275.9692 13.18687506 81051
ONEWEB-0410             
1 51622U 22012A   23187.36521750 -.00000031  00000+0 -11420-3 0  9999
2 51622  87.9159 219.8331 0003446  90.4973 269.6554 13.17648772 73185
ONEWEB-0411             
1 51623U 22012B   23188.13607026 -.00000350  00000+0 -10377-2 0  9990
2 51623  87.8834 249.9639 0002315 108.0155 252.1225 13.10376930 69647
ONEWEB-0415             
1 51624U 22012C   23187.59838689  .00000792  00000+0  22311-2 0  9990
2 51624  87.8837 250.0964 0002139 111.3654 248.7702 13.10372507 69579
ONEWEB-0416             
1 51625U 22012D   23187.45680861 -.00000507  00000+0 -14878-2 0  9998
2 51625  87.8838 250.1118 0002243  91.0895 269.0489 13.10370795 69609
ONEWEB-0422             
1 51626U 22012E   23187.52600212 -.00000014  00000+0 -69866-4 0  9991
2 51626  87.9156 219.7997 0001435  70.0403 290.0883 13.17650940 73308
ONEWEB-0423             
1 51627U 22012F   23187.51932256 -.00000014  00000+0 -70423-4 0  9998
2 51627  87.9157 219.7342 0002204  92.0374 268.1010 13.17646953 73206
ONEWEB-0425             
1 51628U 22012G   23187.46635454  .00000676  00000+0  19011-2 0  9999
2 51628  87.8832 250.1048 0002419  83.9996 276.1407 13.10372214 69602
ONEWEB-0428             
1 51629U 22012H   23188.13448184 -.00000325  00000+0 -96828-3 0  9992
2 51629  87.8833 249.9824 0001513  95.3200 264.8099 13.10364381 69642
ONEWEB-0431             
1 51630U 22012J   23187.47588460  .00000284  00000+0  77815-3 0  9999
2 51630  87.8833 250.1050 0001824 122.3456 237.7848 13.10372643 69627
ONEWEB-0434             
1 51631U 22012K   23187.46954204  .00000670  00000+0  18823-2 0  9994
2 51631  87.8832 250.1252 0001806  90.6603 269.4732 13.10371845 69607
ONEWEB-0435             
1 51632U 22012L   23187.63177235  .00000589  00000+0  16502-2 0  9996
2 51632  87.8830 250.0827 0001341  91.3138 268.8143 13.10375031 69608
ONEWEB-0436             
1 51633U 22012M   23186.83142606 -.00000052  00000+0 -16765-3 0  9991
2 51633  87.9157 219.9323 0001799  86.4383 273.6954 13.17650079 73098
ONEWEB-0438             
1 51634U 22012N   23187.46158781  .00000671  00000+0  18864-2 0  9999
2 51634  87.8834 250.1166 0002215  93.8032 266.3348 13.10370931 69628
ONEWEB-0439             
1 51635U 22012P   23187.46476726  .00000633  00000+0  17782-2 0  9998
2 51635  87.8835 250.0979 0001946  94.2135 265.9214 13.10370225 69599
ONEWEB-0442             
1 51636U 22012Q   23186.82247279 -.00000089  00000+0 -26177-3 0  9993
2 51636  87.9157 219.9161 0003029 100.9163 259.2309 13.17649926 73089
ONEWEB-0443             
1 51637U 22012R   23187.82752197 -.00000006  00000+0 -48414-4 0  9993
2 51637  87.9156 219.7221 0001799  73.9310 286.2019 13.17650114 73268
ONEWEB-0444             
1 51638U 22012S   23187.60792977  .00000065  00000+0  14878-3 0  9999
2 51638  87.8838 250.0963 0001827  90.9274 269.2062 13.10374913 69634
ONEWEB-0445             
1 51639U 22012T   23187.47747699  .00000647  00000+0  18176-2 0  9996
2 51639  87.8815 250.1147 0002512 104.3759 255.7648 13.10373596 69619
ONEWEB-0446             
1 51640U 22012U   23187.45361557  .00000063  00000+0  14355-3 0  9999
2 51640  87.8837 250.1207 0002113 103.9458 256.1904 13.10377618 69619
ONEWEB-0448             
1 51641U 22012V   23187.45840400  .00000311  00000+0  85574-3 0  9996
2 51641  87.8836 250.1217 0001871  89.8583 270.2758 13.10373748 69570
ONEWEB-0449             
1 51642U 22012W   23187.61589136  .00000568  00000+0  15921-2 0  9993
2 51642  87.8838 250.0913 0002383  93.1310 267.0090 13.10372165 69610
